{"type": "FeatureCollection", "features": [ {"type": "Feature", "properties": {"norad_id": 30928, "name": "FENGYUN 1C DEB", "group": "fengyun-1c-debris", "lat": 71.02662814327863, "lon": -65.43026390787088, "alt_km": 1259.6568814986604, "timestamp": "2025-12-26T04:40:06.066130+00:00", "meta": {"OBJECT_NAME": "FENGYUN 1C DEB", "OBJECT_ID": "1999-025AZS", "EPOCH": "2025-12-25T18:01:02.783424", "MEAN_MOTION": 13.22257134, "ECCENTRICITY": 0.04498404, "INCLINATION": 98.8822, "RA_OF_ASC_NODE": 87.1382, "ARG_OF_PERICENTER": 359.9783, "MEAN_ANOMALY": 150.4632, "EPHEMERIS_TYPE": 0, "CLASSIFICATION_TYPE": "U", "NORAD_CAT_ID": 30928, "ELEMENT_SET_NO": 999, "REV_AT_EPOCH": 90520, "BSTAR": 0.0012281189, "MEAN_MOTION_DOT": 8.36e-06, "MEAN_MOTION_DDOT": 0}, "tle": {"line1": "1 30928U 99025AZS 25359.75072666  .00000836  00000+0  12281-2 0  9992", "line2": "2 30928  98.8822  87.1382 0449840 359.9783 150.4632 13.22257134905200"}}, "geometry": {"type": "Point", "coordinates": [-65.43026390787088, 71.02662814327863]}}, {"type": "Feature", "properties": {"norad_id": 30930, "name": "FENGYUN 1C DEB", "group": "fengyun-1c-debris", "lat": 51.86132851148905, "lon": 17.28729468403225, "alt_km": 685.9837653165796, "timestamp": "2025-12-26T04:40:06.066140+00:00", "meta": {"OBJECT_NAME": "FENGYUN 1C DEB", "OBJECT_ID": "1999-025AZU", "EPOCH": "2025-12-24T07:35:54.253824", "MEAN_MOTION": 14.37414538, "ECCENTRICITY": 0.01096647, "INCLINATION": 98.2146, "RA_OF_ASC_NODE": 26.0944, "ARG_OF_PERICENTER": 71.9242, "MEAN_ANOMALY": 349.0631, "EPHEMERIS_TYPE": 0, "CLASSIFICATION_TYPE": "U", "NORAD_CAT_ID": 30930, "ELEMENT_SET_NO": 999, "REV_AT_EPOCH": 98498, "BSTAR": 0.00032538057, "MEAN_MOTION_DOT": 1e-05, "MEAN_MOTION_DDOT": 0}, "tle": {"line1": "1 30930U 99025AZU 25358.31660016  .00001000  00000+0  32538-3 0  9990", "line2": "2 30930  98.2146  26.0944 0109664  71.9242 349.0631 14.37414538984987"}}, "geometry": {"type": "Point", "coordinates": [17.28729468403225, 51.86132851148905]}}, {"type": "Feature", "properties": {"norad_id": 30931, "name": "FENGYUN 1C DEB", "group": "fengyun-1c-debris", "lat": -47.69707297817, "lon": 68.01844186309705, "alt_km": 854.0996948535503, "timestamp": "2025-12-26T04:40:06.066150+00:00", "meta": {"OBJECT_NAME": "FENGYUN 1C DEB", "OBJECT_ID": "1999-025AZV", "EPOCH": "2025-12-24T15:55:49.630368", "MEAN_MOTION": 14.0153375, "ECCENTRICITY": 0.0092675, "INCLINATION": 99.1704, "RA_OF_ASC_NODE": 56.2559, "ARG_OF_PERICENTER": 8.5599, "MEAN_ANOMALY": 144.6456, "EPHEMERIS_TYPE": 0, "CLASSIFICATION_TYPE": "U", "NORAD_CAT_ID": 30931, "ELEMENT_SET_NO": 999, "REV_AT_EPOCH": 96092, "BSTAR": 0.00055182247, "MEAN_MOTION_DOT": 8.21e-06, "MEAN_MOTION_DDOT": 0}, "tle": {"line1": "1 30931U 99025AZV 25358.66376887  .00000821  00000+0  55182-3 0  9999", "line2": "2 30931  99.1704  56.2559 0092675   8.5599 144.6456 14.01533750960920"}}, "geometry": {"type": "Point", "coordinates": [68.01844186309705, -47.69707297817]}}, {"type": "Feature", "properties": {"norad_id": 30932, "name": "FENGYUN 1C DEB", "group": "fengyun-1c-debris", "lat": 28.13295182526509, "lon": -71.47137052447354, "alt_km": 828.773747931331, "timestamp": "2025-12-26T04:40:06.066160+00:00", "meta": {"OBJECT_NAME": "FENGYUN 1C DEB", "OBJECT_ID": "1999-025AZW", "EPOCH": "2025-12-21T06:43:56.374176", "MEAN_MOTION": 14.26904015, "ECCENTRICITY": 0.00571492, "INCLINATION": 98.9092, "RA_OF_ASC_NODE": 288.3376, "ARG_OF_PERICENTER": 269.3371, "MEAN_ANOMALY": 90.126, "EPHEMERIS_TYPE": 0, "CLASSIFICATION_TYPE": "U", "NORAD_CAT_ID": 30932, "ELEMENT_SET_NO": 999, "REV_AT_EPOCH": 96516, "BSTAR": 0.0018186282, "MEAN_MOTION_DOT": 4.449e-05, "MEAN_MOTION_DDOT": 0}, "tle": {"line1": "1 30932U 99025AZW 25355.28051359  .00004449  00000+0  18186-2 0  9991", "line2": "2 30932  98.9092 288.3376 0057149 269.3371  90.1260 14.26904015965167"}}, "geometry": {"type": "Point", "coordinates": [-71.47137052447354, 28.13295182526509]}}, {"type": "Feature", "properties": {"norad_id": 30933, "name": "FENGYUN 1C DEB", "group": "fengyun-1c-debris", "lat": 39.89790031840075, "lon": -24.292248629810107, "alt_km": 789.6217328848852, "timestamp": "2025-12-26T04:40:06.066170+00:00", "meta": {"OBJECT_NAME": "FENGYUN 1C DEB", "OBJECT_ID": "1999-025AZX", "EPOCH": "2025-12-25T05:39:04.124160", "MEAN_MOTION": 14.36828858, "ECCENTRICITY": 0.0075314, "INCLINATION": 99.0487, "RA_OF_ASC_NODE": 342.3567, "ARG_OF_PERICENTER": 286.6966, "MEAN_ANOMALY": 195.1124, "EPHEMERIS_TYPE": 0, "CLASSIFICATION_TYPE": "U", "NORAD_CAT_ID": 30933, "ELEMENT_SET_NO": 999, "REV_AT_EPOCH": 96051, "BSTAR": 0.0049802, "MEAN_MOTION_DOT": 0.00015183, "MEAN_MOTION_DDOT": 0}, "tle": {"line1": "1 30933U 99025AZX 25359.23546440  .00015183  00000+0  49802-2 0  9997", "line2": "2 30933  99.0487 342.3567 0075314 286.6966 195.1124 14.36828858960517"}}, "geometry": {"type": "Point", "coordinates": [-24.292248629810107, 39.89790031840075]}}, {"type": "Feature", "properties": {"norad_id": 30934, "name": "FENGYUN 1C DEB", "group": "fengyun-1c-debris", "lat": -53.08311776090478, "lon": -112.60544548838108, "alt_km": 1132.0898352287732, "timestamp": "2025-12-26T04:40:06.066180+00:00", "meta": {"OBJECT_NAME": "FENGYUN 1C DEB", "OBJECT_ID": "1999-025AZY", "EPOCH": "2025-12-25T21:47:57.175296", "MEAN_MOTION": 13.46790534, "ECCENTRICITY": 0.03413778, "INCLINATION": 98.7654, "RA_OF_ASC_NODE": 235.293, "ARG_OF_PERICENTER": 48.0114, "MEAN_ANOMALY": 314.9569, "EPHEMERIS_TYPE": 0, "CLASSIFICATION_TYPE": "U", "NORAD_CAT_ID": 30934, "ELEMENT_SET_NO": 999, "REV_AT_EPOCH": 91885, "BSTAR": 0.0021665713, "MEAN_MOTION_DOT": 1.834e-05, "MEAN_MOTION_DDOT": 0}, "tle": {"line1": "1 30934U 99025AZY 25359.90830064  .00001834  00000+0  21666-2 0  9996", "line2": "2 30934  98.7654 235.2930 0341377  48.0114 314.9569 13.46790534918857"}}, "geometry": {"type": "Point", "coordinates": [-112.60544548838108, -53.08311776090478]}}, {"type": "Feature", "properties": {"norad_id": 30936, "name": "FENGYUN 1C DEB", "group": "fengyun-1c-debris", "lat": 81.27560203465816, "lon": -49.04164708466427, "alt_km": 838.0429426833725, "timestamp": "2025-12-26T04:40:06.066191+00:00", "meta": {"OBJECT_NAME": "FENGYUN 1C DEB", "OBJECT_ID": "1999-025BAA", "EPOCH": "2025-12-25T22:04:31.179648", "MEAN_MOTION": 14.23402013, "ECCENTRICITY": 0.00461486, "INCLINATION": 98.5806, "RA_OF_ASC_NODE": 30.3937, "ARG_OF_PERICENTER": 251.6756, "MEAN_ANOMALY": 230.0537, "EPHEMERIS_TYPE": 0, "CLASSIFICATION_TYPE": "U", "NORAD_CAT_ID": 30936, "ELEMENT_SET_NO": 999, "REV_AT_EPOCH": 97320, "BSTAR": 0.00046152253, "MEAN_MOTION_DOT": 1.016e-05, "MEAN_MOTION_DDOT": 0}, "tle": {"line1": "1 30936U 99025BAA 25359.91980532  .00001016  00000+0  46152-3 0  9995", "line2": "2 30936  98.5806  30.3937 0046148 251.6756 230.0537 14.23402013973200"}}, "geometry": {"type": "Point", "coordinates": [-49.04164708466427, 81.27560203465816]}}, {"type": "Feature", "properties": {"norad_id": 30937, "name": "FENGYUN 1C DEB", "group": "fengyun-1c-debris", "lat": 14.82459759103877, "lon": 49.939386848983204, "alt_km": 855.0438505118564, "timestamp": "2025-12-26T04:40:06.066201+00:00", "meta": {"OBJECT_NAME": "FENGYUN 1C DEB", "OBJECT_ID": "1999-025BAB", "EPOCH": "2025-12-25T02:55:11.289216", "MEAN_MOTION": 13.95588395, "ECCENTRICITY": 0.00752467, "INCLINATION": 99.0872, "RA_OF_ASC_NODE": 51.3095, "ARG_OF_PERICENTER": 19.5585, "MEAN_ANOMALY": 8.3696, "EPHEMERIS_TYPE": 0, "CLASSIFICATION_TYPE": "U", "NORAD_CAT_ID": 30937, "ELEMENT_SET_NO": 999, "REV_AT_EPOCH": 95889, "BSTAR": -3.9949967e-05, "MEAN_MOTION_DOT": -1e-06, "MEAN_MOTION_DDOT": 0}, "tle": {"line1": "1 30937U 99025BAB 25359.12165844 -.00000100  00000+0 -39950-4 0  9994", "line2": "2 30937  99.0872  51.3095 0075246  19.5585   8.3696 13.95588395958896"}}, "geometry": {"type": "Point", "coordinates": [49.939386848983204, 14.82459759103877]}}, {"type": "Feature", "properties": {"norad_id": 30938, "name": "FENGYUN 1C DEB", "group": "fengyun-1c-debris", "lat": -8.978409876828604, "lon": -168.07826134206059, "alt_km": 843.8581367581637, "timestamp": "2025-12-26T04:40:06.066211+00:00", "meta": {"OBJECT_NAME": "FENGYUN 1C DEB", "OBJECT_ID": "1999-025BAC", "EPOCH": "2025-12-24T23:18:38.579040", "MEAN_MOTION": 14.19837023, "ECCENTRICITY": 0.00454269, "INCLINATION": 98.5904, "RA_OF_ASC_NODE": 12.1032, "ARG_OF_PERICENTER": 307.9555, "MEAN_ANOMALY": 112.551, "EPHEMERIS_TYPE": 0, "CLASSIFICATION_TYPE": "U", "NORAD_CAT_ID": 30938, "ELEMENT_SET_NO": 999, "REV_AT_EPOCH": 97293, "BSTAR": 0.00033173318, "MEAN_MOTION_DOT": 6.68e-06, "MEAN_MOTION_DDOT": 0}, "tle": {"line1": "1 30938U 99025BAC 25358.97127985  .00000668  00000+0  33173-3 0  9998", "line2": "2 30938  98.5904  12.1032 0045426 307.9555 112.5510 14.19837023972937"}}, "geometry": {"type": "Point", "coordinates": [-168.07826134206059, -8.978409876828604]}}, {"type": "Feature", "properties": {"norad_id": 30940, "name": "FENGYUN 1C DEB", "group": "fengyun-1c-debris", "lat": -79.01539875125687, "lon": 51.34900195130155, "alt_km": 852.8854680232935, "timestamp": "2025-12-26T04:40:06.066221+00:00", "meta": {"OBJECT_NAME": "FENGYUN 1C DEB", "OBJECT_ID": "1999-025BAE", "EPOCH": "2025-12-22T05:52:00.054912", "MEAN_MOTION": 14.08319135, "ECCENTRICITY": 0.00407229, "INCLINATION": 98.6214, "RA_OF_ASC_NODE": 356.1653, "ARG_OF_PERICENTER": 336.7041, "MEAN_ANOMALY": 84.9821, "EPHEMERIS_TYPE": 0, "CLASSIFICATION_TYPE": "U", "NORAD_CAT_ID": 30940, "ELEMENT_SET_NO": 999, "REV_AT_EPOCH": 96266, "BSTAR": 0.00045494688, "MEAN_MOTION_DOT": 7.42e-06, "MEAN_MOTION_DDOT": 0}, "tle": {"line1": "1 30940U 99025BAE 25356.24444508  .00000742  00000+0  45495-3 0  9995", "line2": "2 30940  98.6214 356.1653 0040722 336.7041  84.9821 14.08319135962662"}}, "geometry": {"type": "Point", "coordinates": [51.34900195130155, -79.01539875125687]}}]}